<?xml version="1.0" encoding="UTF-8"?>
<seiscomp xmlns="http://geofon.gfz.de/ns/seiscomp-schema/0.14" version="0.14">
  <EventParameters>
    <pick publicID="Pick/20260311081750.380348.158080">
      <time>
        <value>2026-03-11T08:12:56.315536Z</value>
      </time>
      <waveformID networkCode="IU" stationCode="CTAO" locationCode="00" channelCode="BHZ"/>
      <filterID>BW_HP(3,1)</filterID>
      <phaseHint>P</phaseHint>
      <evaluationMode>manual</evaluationMode>
      <creationInfo>
        <agencyID>GA</agencyID>
        <author>duty1-u13625</author>
        <creationTime>2026-03-11T08:17:50.380358Z</creationTime>
      </creationInfo>
    </pick>
    <pick publicID="Pick/20260311083323.9409.159314">
      <time>
        <value>2026-03-11T08:12:37.398971Z</value>
      </time>
      <waveformID networkCode="AU" stationCode="OOD" locationCode="00" channelCode="BHZ"/>
      <filterID>BW_HP(3,5)</filterID>
      <phaseHint>P</phaseHint>
      <evaluationMode>manual</evaluationMode>
      <creationInfo>
        <agencyID>GA</agencyID>
        <author>duty1-u13625</author>
        <creationTime>2026-03-11T08:33:23.940911Z</creationTime>
      </creationInfo>
    </pick>
    <pick publicID="Pick/20260311205838.497344.111864">
      <time>
        <value>2026-03-11T08:12:05.978701Z</value>
      </time>
      <waveformID networkCode="AU" stationCode="BBOO" locationCode="00" channelCode="BHZ"/>
      <filterID>BW_BP(3,4.0,8)</filterID>
      <phaseHint>P</phaseHint>
      <evaluationMode>manual</evaluationMode>
      <creationInfo>
        <agencyID>GA</agencyID>
        <author>analyst1-u63430</author>
        <creationTime>2026-03-11T20:58:38.497353Z</creationTime>
      </creationInfo>
    </pick>
    <pick publicID="Pick/20260311081750.380274.158079">
      <time>
        <value>2026-03-11T08:11:53.616157Z</value>
      </time>
      <waveformID networkCode="AU" stationCode="LCRK" locationCode="00" channelCode="BHZ"/>
      <filterID>BW_HP(3,1)</filterID>
      <phaseHint>P</phaseHint>
      <evaluationMode>manual</evaluationMode>
      <creationInfo>
        <agencyID>GA</agencyID>
        <author>duty1-u13625</author>
        <creationTime>2026-03-11T08:17:50.380284Z</creationTime>
      </creationInfo>
    </pick>
    <pick publicID="Pick/20260311205838.49717.111863">
      <time>
        <value>2026-03-11T08:11:50.433006Z</value>
      </time>
      <waveformID networkCode="AU" stationCode="INKA" locationCode="00" channelCode="BHZ"/>
      <filterID>BW_BP(3,4.0,8)</filterID>
      <phaseHint>P</phaseHint>
      <evaluationMode>manual</evaluationMode>
      <creationInfo>
        <agencyID>GA</agencyID>
        <author>analyst1-u63430</author>
        <creationTime>2026-03-11T20:58:38.49718Z</creationTime>
      </creationInfo>
    </pick>
    <pick publicID="Pick/20260311081750.380097.158078">
      <time>
        <value>2026-03-11T08:11:46.330266Z</value>
      </time>
      <waveformID networkCode="M8" stationCode="WALLA" channelCode="HHZ"/>
      <filterID>BW_HP(3,1)</filterID>
      <phaseHint>P</phaseHint>
      <evaluationMode>manual</evaluationMode>
      <creationInfo>
        <agencyID>GA</agencyID>
        <author>duty1-u13625</author>
        <creationTime>2026-03-11T08:17:50.380108Z</creationTime>
      </creationInfo>
    </pick>
    <pick publicID="Pick/20260311205838.496984.111862">
      <time>
        <value>2026-03-11T08:11:45.778413Z</value>
      </time>
      <waveformID networkCode="AU" stationCode="EIDS" locationCode="00" channelCode="BHZ"/>
      <filterID>BW_BP(3,2.0,4)</filterID>
      <phaseHint>P</phaseHint>
      <evaluationMode>manual</evaluationMode>
      <creationInfo>
        <agencyID>GA</agencyID>
        <author>analyst1-u63430</author>
        <creationTime>2026-03-11T20:58:38.496993Z</creationTime>
      </creationInfo>
    </pick>
    <pick publicID="Pick/20260311081203.611733.229735">
      <time>
        <value>2026-03-11T08:11:45.375Z</value>
      </time>
      <waveformID networkCode="AU" stationCode="YAPP" locationCode="00" channelCode="BHZ"/>
      <filterID>ITAPER(10)&gt;&gt;(BW(4,0.7,2)^2+BW(4,2,6)^2)^0.5</filterID>
      <methodID>AIC</methodID>
      <phaseHint>P</phaseHint>
      <evaluationMode>automatic</evaluationMode>
      <creationInfo>
        <agencyID>GA1</agencyID>
        <author>scautopick@proc1</author>
        <creationTime>2026-03-11T08:12:03.611748Z</creationTime>
      </creationInfo>
    </pick>
    <pick publicID="Pick/20260311205838.496726.111860">
      <time>
        <value>2026-03-11T08:11:44.707084Z</value>
      </time>
      <waveformID networkCode="AU" stationCode="PTPS" locationCode="00" channelCode="BHZ"/>
      <filterID>BW_BP(3,2.0,4)</filterID>
      <phaseHint>P</phaseHint>
      <evaluationMode>manual</evaluationMode>
      <creationInfo>
        <agencyID>GA</agencyID>
        <author>analyst1-u63430</author>
        <creationTime>2026-03-11T20:58:38.496736Z</creationTime>
      </creationInfo>
    </pick>
    <pick publicID="Pick/20260311081750.379898.158077">
      <time>
        <value>2026-03-11T08:11:42.602321Z</value>
      </time>
      <waveformID networkCode="AU" stationCode="NAPP" locationCode="00" channelCode="BHZ"/>
      <filterID>BW_HP(3,3)</filterID>
      <phaseHint>P</phaseHint>
      <evaluationMode>manual</evaluationMode>
      <creationInfo>
        <agencyID>GA</agencyID>
        <author>duty1-u13625</author>
        <creationTime>2026-03-11T08:17:50.379908Z</creationTime>
      </creationInfo>
    </pick>
    <pick publicID="Pick/20260311081149.442564.229683">
      <time>
        <value>2026-03-11T08:11:39.3Z</value>
      </time>
      <waveformID networkCode="AU" stationCode="QLP" locationCode="00" channelCode="BHZ"/>
      <filterID>ITAPER(10)&gt;&gt;(BW(4,0.7,2)^2+BW(4,2,6)^2)^0.5</filterID>
      <methodID>AIC</methodID>
      <phaseHint>P</phaseHint>
      <evaluationMode>automatic</evaluationMode>
      <creationInfo>
        <agencyID>GA1</agencyID>
        <author>scautopick@proc1</author>
        <creationTime>2026-03-11T08:11:49.442588Z</creationTime>
      </creationInfo>
    </pick>
    <pick publicID="Pick/20260311083323.940195.159313">
      <time>
        <value>2026-03-11T08:11:36.302287Z</value>
      </time>
      <waveformID networkCode="AU" stationCode="TWOA" locationCode="00" channelCode="BHZ"/>
      <filterID>BW_HP(3,5)</filterID>
      <phaseHint>P</phaseHint>
      <evaluationMode>manual</evaluationMode>
      <creationInfo>
        <agencyID>GA</agencyID>
        <author>duty1-u13625</author>
        <creationTime>2026-03-11T08:33:23.940208Z</creationTime>
      </creationInfo>
    </pick>
    <pick publicID="Pick/20260311205838.496353.111859">
      <time>
        <value>2026-03-11T08:11:35.538756Z</value>
      </time>
      <waveformID networkCode="AM" stationCode="RFD5B" locationCode="00" channelCode="EHZ"/>
      <filterID>BW_BP(3,2.0,4)</filterID>
      <phaseHint>P</phaseHint>
      <evaluationMode>manual</evaluationMode>
      <creationInfo>
        <agencyID>GA</agencyID>
        <author>analyst1-u63430</author>
        <creationTime>2026-03-11T20:58:38.496362Z</creationTime>
      </creationInfo>
    </pick>
    <pick publicID="Pick/20260311205838.496275.111858">
      <time>
        <value>2026-03-11T08:11:34.202884Z</value>
      </time>
      <waveformID networkCode="AM" stationCode="RDDF8" locationCode="00" channelCode="EHZ"/>
      <filterID>BW_BP(3,2.0,4)</filterID>
      <phaseHint>P</phaseHint>
      <evaluationMode>manual</evaluationMode>
      <creationInfo>
        <agencyID>GA</agencyID>
        <author>analyst1-u63430</author>
        <creationTime>2026-03-11T20:58:38.496285Z</creationTime>
      </creationInfo>
    </pick>
    <pick publicID="Pick/20260311081750.379699.158076">
      <time>
        <value>2026-03-11T08:11:32.544318Z</value>
      </time>
      <waveformID networkCode="AU" stationCode="HTT" locationCode="00" channelCode="BHZ"/>
      <filterID>BW_HP(3,3)</filterID>
      <phaseHint>P</phaseHint>
      <evaluationMode>manual</evaluationMode>
      <creationInfo>
        <agencyID>GA</agencyID>
        <author>duty1-u13625</author>
        <creationTime>2026-03-11T08:17:50.379708Z</creationTime>
      </creationInfo>
    </pick>
    <pick publicID="Pick/20260311081750.379625.158075">
      <time>
        <value>2026-03-11T08:11:27.573971Z</value>
      </time>
      <waveformID networkCode="AU" stationCode="RMQ" locationCode="00" channelCode="BHZ"/>
      <filterID>BW_HP(3,3)</filterID>
      <phaseHint>P</phaseHint>
      <evaluationMode>manual</evaluationMode>
      <creationInfo>
        <agencyID>GA</agencyID>
        <author>duty1-u13625</author>
        <creationTime>2026-03-11T08:17:50.379635Z</creationTime>
      </creationInfo>
    </pick>
    <pick publicID="Pick/20260311081750.379552.158074">
      <time>
        <value>2026-03-11T08:11:26.726342Z</value>
      </time>
      <waveformID networkCode="AU" stationCode="SDAN" locationCode="00" channelCode="BHZ"/>
      <filterID>BW_HP(3,3)</filterID>
      <phaseHint>P</phaseHint>
      <evaluationMode>manual</evaluationMode>
      <creationInfo>
        <agencyID>GA</agencyID>
        <author>duty1-u13625</author>
        <creationTime>2026-03-11T08:17:50.379562Z</creationTime>
      </creationInfo>
    </pick>
    <pick publicID="Pick/20260311083323.939765.159312">
      <time>
        <value>2026-03-11T08:11:26.73293Z</value>
      </time>
      <waveformID networkCode="AU" stationCode="BRS" locationCode="00" channelCode="BHZ"/>
      <filterID>BW_HP(3,5)</filterID>
      <phaseHint>P</phaseHint>
      <evaluationMode>manual</evaluationMode>
      <creationInfo>
        <agencyID>GA</agencyID>
        <author>duty1-u13625</author>
        <creationTime>2026-03-11T08:33:23.939775Z</creationTime>
      </creationInfo>
    </pick>
    <pick publicID="Pick/20260311205838.495785.111857">
      <time>
        <value>2026-03-11T08:11:11.636914Z</value>
      </time>
      <waveformID networkCode="AM" stationCode="RC74C" locationCode="00" channelCode="EHZ"/>
      <filterID>BW_BP(3,2.0,4)</filterID>
      <phaseHint>P</phaseHint>
      <evaluationMode>manual</evaluationMode>
      <creationInfo>
        <agencyID>GA</agencyID>
        <author>analyst1-u63430</author>
        <creationTime>2026-03-11T20:58:38.495794Z</creationTime>
      </creationInfo>
    </pick>
    <pick publicID="Pick/20260311205838.495714.111856">
      <time>
        <value>2026-03-11T08:11:11.881623Z</value>
      </time>
      <waveformID networkCode="AM" stationCode="RA20F" locationCode="00" channelCode="SHZ"/>
      <filterID>BW_BP(3,2.0,4)</filterID>
      <phaseHint>P</phaseHint>
      <evaluationMode>manual</evaluationMode>
      <creationInfo>
        <agencyID>GA</agencyID>
        <author>analyst1-u63430</author>
        <creationTime>2026-03-11T20:58:38.495724Z</creationTime>
      </creationInfo>
    </pick>
    <pick publicID="Pick/20260311081750.379461.158073">
      <time>
        <value>2026-03-11T08:11:09.838585Z</value>
      </time>
      <waveformID networkCode="AU" stationCode="STKA" channelCode="BHZ"/>
      <filterID>BW_HP(3,3)</filterID>
      <phaseHint>P</phaseHint>
      <evaluationMode>manual</evaluationMode>
      <creationInfo>
        <agencyID>GA</agencyID>
        <author>duty1-u13625</author>
        <creationTime>2026-03-11T08:17:50.379472Z</creationTime>
      </creationInfo>
    </pick>
    <pick publicID="Pick/20260311081114.952285.229599">
      <time>
        <value>2026-03-11T08:11:05.05Z</value>
      </time>
      <waveformID networkCode="AU" stationCode="ARPS" locationCode="00" channelCode="BHZ"/>
      <filterID>ITAPER(10)&gt;&gt;(BW(4,0.7,2)^2+BW(4,2,6)^2)^0.5</filterID>
      <methodID>AIC</methodID>
      <phaseHint>P</phaseHint>
      <evaluationMode>automatic</evaluationMode>
      <creationInfo>
        <agencyID>GA1</agencyID>
        <author>scautopick@proc1</author>
        <creationTime>2026-03-11T08:11:14.952301Z</creationTime>
      </creationInfo>
    </pick>
    <pick publicID="Pick/20260311083323.939472.159311">
      <time>
        <value>2026-03-11T08:10:53.508354Z</value>
      </time>
      <waveformID networkCode="AU" stationCode="GEXS" locationCode="00" channelCode="BHZ"/>
      <filterID>BW_HP(3,3)</filterID>
      <phaseHint>P</phaseHint>
      <evaluationMode>manual</evaluationMode>
      <creationInfo>
        <agencyID>GA</agencyID>
        <author>duty1-u13625</author>
        <creationTime>2026-03-11T08:33:23.939482Z</creationTime>
      </creationInfo>
    </pick>
    <pick publicID="Pick/20260311205838.495337.111855">
      <time>
        <value>2026-03-11T08:10:51.916253Z</value>
      </time>
      <waveformID networkCode="S1" stationCode="AUMTC" channelCode="HHZ"/>
      <filterID>BW_BP(3,2.0,4)</filterID>
      <phaseHint>P</phaseHint>
      <evaluationMode>manual</evaluationMode>
      <creationInfo>
        <agencyID>GA</agencyID>
        <author>analyst1-u63430</author>
        <creationTime>2026-03-11T20:58:38.495347Z</creationTime>
      </creationInfo>
    </pick>
    <pick publicID="Pick/20260311205838.495251.111854">
      <time>
        <value>2026-03-11T08:10:51.69253Z</value>
      </time>
      <waveformID networkCode="AM" stationCode="R819A" locationCode="00" channelCode="EHZ"/>
      <filterID>BW_BP(3,2.0,4)</filterID>
      <phaseHint>P</phaseHint>
      <evaluationMode>manual</evaluationMode>
      <creationInfo>
        <agencyID>GA</agencyID>
        <author>analyst1-u63430</author>
        <creationTime>2026-03-11T20:58:38.495261Z</creationTime>
      </creationInfo>
    </pick>
    <pick publicID="Pick/20260311212220.657852.115287">
      <time>
        <value>2026-03-11T08:10:50.43355Z</value>
      </time>
      <waveformID networkCode="AU" stationCode="BRAT" locationCode="00" channelCode="SHZ"/>
      <filterID>BW_BP(3,2.0,4)</filterID>
      <phaseHint>P</phaseHint>
      <evaluationMode>manual</evaluationMode>
      <creationInfo>
        <agencyID>GA</agencyID>
        <author>analyst1-u63430</author>
        <creationTime>2026-03-11T21:22:20.657866Z</creationTime>
      </creationInfo>
    </pick>
    <pick publicID="Pick/20260311205838.49508.111853">
      <time>
        <value>2026-03-11T08:10:44.504001Z</value>
      </time>
      <waveformID networkCode="AM" stationCode="R9CDF" locationCode="00" channelCode="EHZ"/>
      <filterID>BW_BP(3,2.0,4)</filterID>
      <phaseHint>P</phaseHint>
      <evaluationMode>manual</evaluationMode>
      <creationInfo>
        <agencyID>GA</agencyID>
        <author>analyst1-u63430</author>
        <creationTime>2026-03-11T20:58:38.49509Z</creationTime>
      </creationInfo>
    </pick>
    <pick publicID="Pick/20260311205838.494926.111851">
      <time>
        <value>2026-03-11T08:10:43.112889Z</value>
      </time>
      <waveformID networkCode="AU" stationCode="GVL" locationCode="00" channelCode="BHZ"/>
      <filterID>BW_BP(3,4.0,8)</filterID>
      <phaseHint>P</phaseHint>
      <evaluationMode>manual</evaluationMode>
      <creationInfo>
        <agencyID>GA</agencyID>
        <author>analyst1-u63430</author>
        <creationTime>2026-03-11T20:58:38.494935Z</creationTime>
      </creationInfo>
    </pick>
    <pick publicID="Pick/20260311205838.494995.111852">
      <time>
        <value>2026-03-11T08:10:43.140553Z</value>
      </time>
      <waveformID networkCode="AU" stationCode="ARMA" locationCode="00" channelCode="BHZ"/>
      <filterID>BW_BP(3,2.0,4)</filterID>
      <phaseHint>P</phaseHint>
      <evaluationMode>manual</evaluationMode>
      <creationInfo>
        <agencyID>GA</agencyID>
        <author>analyst1-u63430</author>
        <creationTime>2026-03-11T20:58:38.495004Z</creationTime>
      </creationInfo>
    </pick>
    <pick publicID="Pick/20260311081750.37887.158071">
      <time>
        <value>2026-03-11T08:10:38.321789Z</value>
      </time>
      <waveformID networkCode="AU" stationCode="TOO" locationCode="00" channelCode="BHZ"/>
      <filterID>BW_HP(3,3)</filterID>
      <phaseHint>P</phaseHint>
      <evaluationMode>manual</evaluationMode>
      <creationInfo>
        <agencyID>GA</agencyID>
        <author>duty1-u13625</author>
        <creationTime>2026-03-11T08:17:50.378881Z</creationTime>
      </creationInfo>
    </pick>
    <pick publicID="Pick/20260311205838.494753.111850">
      <time>
        <value>2026-03-11T08:10:35.908075Z</value>
      </time>
      <waveformID networkCode="AM" stationCode="RF35D" locationCode="00" channelCode="EHZ"/>
      <filterID>self()</filterID>
      <phaseHint>P</phaseHint>
      <evaluationMode>manual</evaluationMode>
      <creationInfo>
        <agencyID>GA</agencyID>
        <author>analyst1-u63430</author>
        <creationTime>2026-03-11T20:58:38.494762Z</creationTime>
      </creationInfo>
    </pick>
    <pick publicID="Pick/20260311083323.938993.159309">
      <time>
        <value>2026-03-11T08:10:33.082263Z</value>
      </time>
      <waveformID networkCode="AU" stationCode="CMSA" locationCode="00" channelCode="BHZ"/>
      <filterID>BW_HP(3,1)</filterID>
      <phaseHint>P</phaseHint>
      <evaluationMode>manual</evaluationMode>
      <creationInfo>
        <agencyID>GA</agencyID>
        <author>duty1-u13625</author>
        <creationTime>2026-03-11T08:33:23.939002Z</creationTime>
      </creationInfo>
    </pick>
    <pick publicID="Pick/20260311083323.938921.159308">
      <time>
        <value>2026-03-11T08:10:29.743242Z</value>
      </time>
      <waveformID networkCode="S1" stationCode="AUPHS" channelCode="HHZ"/>
      <filterID>BW_HP(3,1)</filterID>
      <phaseHint>P</phaseHint>
      <evaluationMode>manual</evaluationMode>
      <creationInfo>
        <agencyID>GA</agencyID>
        <author>duty1-u13625</author>
        <creationTime>2026-03-11T08:33:23.938931Z</creationTime>
      </creationInfo>
    </pick>
    <pick publicID="Pick/20260311205838.494483.111849">
      <time>
        <value>2026-03-11T08:10:25.0951Z</value>
      </time>
      <waveformID networkCode="AM" stationCode="R6D2A" locationCode="00" channelCode="EHZ"/>
      <filterID>self()</filterID>
      <phaseHint>P</phaseHint>
      <evaluationMode>manual</evaluationMode>
      <creationInfo>
        <agencyID>GA</agencyID>
        <author>analyst1-u63430</author>
        <creationTime>2026-03-11T20:58:38.494492Z</creationTime>
      </creationInfo>
    </pick>
    <pick publicID="Pick/20260311205838.494411.111848">
      <time>
        <value>2026-03-11T08:10:21.978435Z</value>
      </time>
      <waveformID networkCode="AM" stationCode="S877D" locationCode="00" channelCode="EHZ"/>
      <filterID>self()</filterID>
      <phaseHint>P</phaseHint>
      <evaluationMode>manual</evaluationMode>
      <creationInfo>
        <agencyID>GA</agencyID>
        <author>analyst1-u63430</author>
        <creationTime>2026-03-11T20:58:38.49442Z</creationTime>
      </creationInfo>
    </pick>
    <pick publicID="Pick/20260311083323.938839.159307">
      <time>
        <value>2026-03-11T08:10:17.622288Z</value>
      </time>
      <waveformID networkCode="AU" stationCode="NTLH" locationCode="00" channelCode="BHZ"/>
      <phaseHint>P</phaseHint>
      <evaluationMode>manual</evaluationMode>
      <creationInfo>
        <agencyID>GA</agencyID>
        <author>duty1-u13625</author>
        <creationTime>2026-03-11T08:33:23.93885Z</creationTime>
      </creationInfo>
    </pick>
    <pick publicID="Pick/20260311081030.38146.229439">
      <time>
        <value>2026-03-11T08:10:17.6Z</value>
      </time>
      <waveformID networkCode="AU" stationCode="MILA" locationCode="00" channelCode="BHZ"/>
      <filterID>ITAPER(10)&gt;&gt;(BW(4,0.7,2)^2+BW(4,2,6)^2)^0.5</filterID>
      <methodID>AIC</methodID>
      <phaseHint>P</phaseHint>
      <evaluationMode>automatic</evaluationMode>
      <creationInfo>
        <agencyID>GA1</agencyID>
        <author>scautopick@proc1</author>
